*******************************************************************************
Ephemeris / WWW_USER Mon Mar 10 07:03:07 2025 Pasadena, USA      / Horizons    
*******************************************************************************
Target body name: (2019 AK3)                      {source: JPL#8}
Center body name: Earth (399)                     {source: DE441}
Center-site name: Mauna Kea
*******************************************************************************
Start time      : A.D. 2019-Jan-27 04:20:00.0000 UT      
Stop  time      : A.D. 2019-Jan-27 16:48:00.0000 UT      
Step-size       : 1 minutes
*******************************************************************************
Target pole/equ : undefined
Target radii    : undefined                                                    
Center geodetic : 204.5278, 19.8260847, 4.21024   {E-lon(deg),Lat(deg),Alt(km)}
Center cylindric: 204.5278, 6006.35451, 2151.0229 {E-lon(deg),Dxy(km),Dz(km)}
Center pole/equ : ITRF93                          {East-longitude positive}
Center radii    : 6378.137, 6378.137, 6356.752 km {Equator_a, b, pole_c}       
Target primary  : Sun
Vis. interferer : MOON (R_eq= 1737.400) km        {source: DE441}
Rel. light bend : Sun                             {source: DE441}
Rel. lght bnd GM: 1.3271E+11 km^3/s^2                                          
Small-body perts: Yes                             {source: SB441-N16}
Atmos refraction: NO (AIRLESS)
RA format       : HMS
Time format     : CAL 
Calendar mode   : Mixed Julian/Gregorian
RTS-only print  : NO       
EOP file        : eop.250307.p250603                                           
EOP coverage    : DATA-BASED 1962-JAN-20 TO 2025-MAR-07. PREDICTS-> 2025-JUN-02
Units conversion: 1 au= 149597870.700 km, c= 299792.458 km/s, 1 day= 86400.0 s 
Table cut-offs 1: Elevation (-90.0deg=NO ),Airmass (>38.000=NO), Daylight (YES)
Table cut-offs 2: Solar elongation (  0.0,180.0=NO ),Local Hour Angle( 0.0=NO )
Table cut-offs 3: RA/DEC angular rate (     0.0=NO )                           
*******************************************************************************
Initial IAU76/J2000 heliocentric ecliptic osculating elements (au, days, deg.):
  EPOCH=  2458490.5 ! 2019-Jan-07.00 (TDB)         Residual RMS= .10027        
   EC= .4460441123274964   QR= .8736665173848456   TP= 2458534.5649506859      
   OM= 293.7231565418804   W=  230.0622942544228   IN= 4.899135051513321       
  Equivalent ICRF heliocentric cartesian coordinates (au, au/d):
   X=-2.869453413579581E-01  Y= 8.924440573967301E-01  Z= 3.991223626471717E-01
  VX=-1.652766681412374E-02 VY=-9.271695064707189E-03 VZ=-5.840432387800149E-03
Asteroid physical parameters (km, seconds, rotational period in hours):        
   GM= n.a.                RAD= n.a.               ROTPER= n.a.                
   H= 27.                  G= .150                 B-V= n.a.                   
                           ALBEDO= n.a.            STYP= n.a.                  
*******************************************************************************
 Date__(UT)__HR:MN     R.A._________(ICRF)_________DEC
******************************************************
$$SOE
 2019-Jan-27 08:26     17 39 03.113625 -37 43 33.15712
 2019-Jan-27 08:27     17 39 03.284804 -37 43 33.39507
 2019-Jan-27 08:28     17 39 03.455940 -37 43 33.63400
 2019-Jan-27 08:29     17 39 03.627032 -37 43 33.87392
 2019-Jan-27 08:30     17 39 03.798079 -37 43 34.11482
 2019-Jan-27 08:31     17 39 03.969082 -37 43 34.35669
 2019-Jan-27 08:32     17 39 04.140038 -37 43 34.59954
 2019-Jan-27 08:33     17 39 04.310949 -37 43 34.84337
 2019-Jan-27 08:34     17 39 04.481812 -37 43 35.08817
 2019-Jan-27 08:35     17 39 04.652628 -37 43 35.33395
 2019-Jan-27 08:36     17 39 04.823396 -37 43 35.58070
 2019-Jan-27 08:37     17 39 04.994115 -37 43 35.82841
 2019-Jan-27 08:38     17 39 05.164785 -37 43 36.07710
 2019-Jan-27 08:39     17 39 05.335405 -37 43 36.32676
 2019-Jan-27 08:40     17 39 05.505974 -37 43 36.57738
 2019-Jan-27 08:41     17 39 05.676493 -37 43 36.82897
 2019-Jan-27 08:42     17 39 05.846959 -37 43 37.08152
 2019-Jan-27 08:43     17 39 06.017373 -37 43 37.33504
 2019-Jan-27 08:44     17 39 06.187735 -37 43 37.58951
 2019-Jan-27 08:45     17 39 06.358042 -37 43 37.84495
 2019-Jan-27 08:46     17 39 06.528296 -37 43 38.10134
 2019-Jan-27 08:47     17 39 06.698495 -37 43 38.35869
 2019-Jan-27 08:48     17 39 06.868638 -37 43 38.61700
 2019-Jan-27 08:49     17 39 07.038726 -37 43 38.87626
 2019-Jan-27 08:50     17 39 07.208757 -37 43 39.13647
 2019-Jan-27 08:51     17 39 07.378732 -37 43 39.39763
 2019-Jan-27 08:52     17 39 07.548648 -37 43 39.65974
 2019-Jan-27 08:53     17 39 07.718506 -37 43 39.92280
 2019-Jan-27 08:54     17 39 07.888306 -37 43 40.18681
 2019-Jan-27 08:55     17 39 08.058046 -37 43 40.45175
 2019-Jan-27 08:56     17 39 08.227726 -37 43 40.71764
 2019-Jan-27 08:57     17 39 08.397345 -37 43 40.98448
 2019-Jan-27 08:58     17 39 08.566903 -37 43 41.25225
 2019-Jan-27 08:59     17 39 08.736399 -37 43 41.52095
 2019-Jan-27 09:00     17 39 08.905833 -37 43 41.79060
 2019-Jan-27 09:01     17 39 09.075204 -37 43 42.06117
 2019-Jan-27 09:02     17 39 09.244512 -37 43 42.33268
 2019-Jan-27 09:03     17 39 09.413755 -37 43 42.60512
 2019-Jan-27 09:04     17 39 09.582934 -37 43 42.87849
 2019-Jan-27 09:05     17 39 09.752047 -37 43 43.15278
 2019-Jan-27 09:06     17 39 09.921095 -37 43 43.42800
 2019-Jan-27 09:07     17 39 10.090076 -37 43 43.70414
 2019-Jan-27 09:08     17 39 10.258990 -37 43 43.98120
 2019-Jan-27 09:09     17 39 10.427837 -37 43 44.25919
 2019-Jan-27 09:10     17 39 10.596616 -37 43 44.53808
 2019-Jan-27 09:11     17 39 10.765326 -37 43 44.81790
 2019-Jan-27 09:12     17 39 10.933966 -37 43 45.09862
 2019-Jan-27 09:13     17 39 11.102537 -37 43 45.38026
 2019-Jan-27 09:14     17 39 11.271037 -37 43 45.66281
 2019-Jan-27 09:15     17 39 11.439467 -37 43 45.94627
 2019-Jan-27 09:16     17 39 11.607825 -37 43 46.23063
 2019-Jan-27 09:17     17 39 11.776110 -37 43 46.51589
 2019-Jan-27 09:18     17 39 11.944324 -37 43 46.80205
 2019-Jan-27 09:19     17 39 12.112463 -37 43 47.08912
 2019-Jan-27 09:20     17 39 12.280530 -37 43 47.37708
 2019-Jan-27 09:21     17 39 12.448521 -37 43 47.66593
 2019-Jan-27 09:22     17 39 12.616438 -37 43 47.95568
 2019-Jan-27 09:23     17 39 12.784280 -37 43 48.24632
 2019-Jan-27 09:24     17 39 12.952045 -37 43 48.53785
 2019-Jan-27 09:25     17 39 13.119734 -37 43 48.83026
 2019-Jan-27 09:26     17 39 13.287346 -37 43 49.12356
 2019-Jan-27 09:27     17 39 13.454880 -37 43 49.41773
 2019-Jan-27 09:28     17 39 13.622337 -37 43 49.71279
 2019-Jan-27 09:29     17 39 13.789714 -37 43 50.00873
 2019-Jan-27 09:30     17 39 13.957012 -37 43 50.30554
 2019-Jan-27 09:31     17 39 14.124230 -37 43 50.60322
 2019-Jan-27 09:32     17 39 14.291368 -37 43 50.90178
 2019-Jan-27 09:33     17 39 14.458425 -37 43 51.20120
 2019-Jan-27 09:34     17 39 14.625400 -37 43 51.50149
 2019-Jan-27 09:35     17 39 14.792294 -37 43 51.80264
 2019-Jan-27 09:36     17 39 14.959104 -37 43 52.10465
 2019-Jan-27 09:37     17 39 15.125832 -37 43 52.40752
 2019-Jan-27 09:38     17 39 15.292476 -37 43 52.71125
 2019-Jan-27 09:39     17 39 15.459037 -37 43 53.01583
 2019-Jan-27 09:40     17 39 15.625512 -37 43 53.32126
 2019-Jan-27 09:41     17 39 15.791902 -37 43 53.62754
 2019-Jan-27 09:42     17 39 15.958207 -37 43 53.93467
 2019-Jan-27 09:43     17 39 16.124425 -37 43 54.24264
 2019-Jan-27 09:44     17 39 16.290556 -37 43 54.55145
 2019-Jan-27 09:45     17 39 16.456601 -37 43 54.86110
 2019-Jan-27 09:46     17 39 16.622557 -37 43 55.17159
 2019-Jan-27 09:47     17 39 16.788425 -37 43 55.48291
 2019-Jan-27 09:48     17 39 16.954204 -37 43 55.79507
 2019-Jan-27 09:49     17 39 17.119894 -37 43 56.10805
 2019-Jan-27 09:50     17 39 17.285494 -37 43 56.42185
 2019-Jan-27 09:51     17 39 17.451003 -37 43 56.73648
 2019-Jan-27 09:52     17 39 17.616422 -37 43 57.05194
 2019-Jan-27 09:53     17 39 17.781749 -37 43 57.36821
 2019-Jan-27 09:54     17 39 17.946984 -37 43 57.68529
 2019-Jan-27 09:55     17 39 18.112127 -37 43 58.00319
 2019-Jan-27 09:56     17 39 18.277177 -37 43 58.32190
 2019-Jan-27 09:57     17 39 18.442133 -37 43 58.64141
 2019-Jan-27 09:58     17 39 18.606995 -37 43 58.96173
 2019-Jan-27 09:59     17 39 18.771763 -37 43 59.28285
 2019-Jan-27 10:00     17 39 18.936436 -37 43 59.60477
 2019-Jan-27 10:01     17 39 19.101014 -37 43 59.92749
 2019-Jan-27 10:02     17 39 19.265495 -37 44 00.25100
 2019-Jan-27 10:03  m  17 39 19.429880 -37 44 00.57530
 2019-Jan-27 10:04  m  17 39 19.594168 -37 44 00.90039
 2019-Jan-27 10:05  m  17 39 19.758359 -37 44 01.22626
 2019-Jan-27 10:06  m  17 39 19.922452 -37 44 01.55292
 2019-Jan-27 10:07  m  17 39 20.086446 -37 44 01.88036
 2019-Jan-27 10:08  m  17 39 20.250341 -37 44 02.20857
 2019-Jan-27 10:09  m  17 39 20.414138 -37 44 02.53755
 2019-Jan-27 10:10  m  17 39 20.577834 -37 44 02.86731
 2019-Jan-27 10:11  m  17 39 20.741430 -37 44 03.19783
 2019-Jan-27 10:12  m  17 39 20.904925 -37 44 03.52912
 2019-Jan-27 10:13  m  17 39 21.068318 -37 44 03.86117
 2019-Jan-27 10:14  m  17 39 21.231610 -37 44 04.19398
 2019-Jan-27 10:15  m  17 39 21.394800 -37 44 04.52754
 2019-Jan-27 10:16  m  17 39 21.557887 -37 44 04.86186
 2019-Jan-27 10:17  m  17 39 21.720870 -37 44 05.19692
 2019-Jan-27 10:18  m  17 39 21.883751 -37 44 05.53273
 2019-Jan-27 10:19  m  17 39 22.046527 -37 44 05.86929
 2019-Jan-27 10:20  m  17 39 22.209198 -37 44 06.20659
 2019-Jan-27 10:21  m  17 39 22.371764 -37 44 06.54462
 2019-Jan-27 10:22  m  17 39 22.534225 -37 44 06.88339
 2019-Jan-27 10:23  m  17 39 22.696580 -37 44 07.22289
 2019-Jan-27 10:24  m  17 39 22.858828 -37 44 07.56312
 2019-Jan-27 10:25  m  17 39 23.020970 -37 44 07.90407
 2019-Jan-27 10:26  m  17 39 23.183004 -37 44 08.24575
 2019-Jan-27 10:27  m  17 39 23.344930 -37 44 08.58814
 2019-Jan-27 10:28  m  17 39 23.506749 -37 44 08.93125
